<?xml version='1.0' encoding='utf-8'?>
<kml xmlns="http://www.opengis.net/kml/2.2">
  <Document>
    <Placemark>
      <name>Ruta por los museos más emblemáticos de Girona - Inicio</name>
      <description>Punto de inicio de la ruta</description>
      <Point>
        <coordinates>2.823908,41.983225,74</coordinates>
        <altitudeMode>relativeToGround</altitudeMode>
      </Point>
    </Placemark>
    <Placemark>
      <name>Bòlit: centre d'art contemporani</name>
      <description>El Bòlit, Centro de Arte Contemporáneo de Girona es un equipamiento cultural público inaugurado en 2008 con el objetivo de promover la creación, la investigación y la difusión del arte contemporáneo.
                    Con varios espacios repartidos por la ciudad de Girona, Bòlit actúa como un laboratorio de creación y pensamiento contemporáneo, con proyección tanto local como internacional.
                </description>
      <Point>
        <coordinates>2.823908,41.983225,74</coordinates>
        <altitudeMode>relativeToGround</altitudeMode>
      </Point>
    </Placemark>
    <Placemark>
      <name>CaixaForum Girona</name>
      <description>CaixaForum Girona ofrece una amplia programación de exposiciones y actividades culturales y educativas dirigidas a todos los públicos.
                    Forma parte de una red de centros CaixaForum que se extiende por varios puntos de la geografía española.
                </description>
      <Point>
        <coordinates>2.825573,41.984384,81</coordinates>
        <altitudeMode>relativeToGround</altitudeMode>
      </Point>
    </Placemark>
    <Placemark>
      <name>Museo de Historia de los Judíos</name>
      <description>El principal objetivo del Museo de Historia de los Judíos es preservar y difundir la historia de las comunidades judías de Cataluña, que a lo largo de toda la Edad Media formaron parte y contribuyeron decisivamente a la trayectoria histórica y al desarrollo cultural y científico del país. </description>
      <Point>
        <coordinates>2.825221,41.985985,82</coordinates>
        <altitudeMode>relativeToGround</altitudeMode>
      </Point>
    </Placemark>
    <Placemark>
      <name>Museo de Historia de Girona</name>
      <description>El museo ofrece un recorrido cronológico por la historia de la ciudad, pasando por la Gerona romana, la medieval, la moderna y la contemporánea. 
                    Igualmente, acoge un espacio dedicado a la imaginería festiva de la ciudad e incluye una sala dedicada a la sardana y a la cobla.
                </description>
      <Point>
        <coordinates>2.825208,41.987034,86</coordinates>
        <altitudeMode>relativeToGround</altitudeMode>
      </Point>
    </Placemark>
    <Placemark>
      <name>Museu d'Art de Girona</name>
      <description>El museo de Arte de Gerona es un museo fundado en 1976 y situado en el antiguo palacio episcopal de Gerona, junto a la catedral.
                    En el museo se puede contemplar por orden cronológico el arte gerundense a través de épocas: románico, gótico, renacimiento, barroco, realismo, modernismo y novecentismo.
                </description>
      <Point>
        <coordinates>2.826261,41.987035,101</coordinates>
        <altitudeMode>relativeToGround</altitudeMode>
      </Point>
    </Placemark>
    <name>Ruta por los museos más emblemáticos de Girona</name>
    <Placemark>
      <LineString>
        <extrude>1</extrude>
        <tessellation>1</tessellation>
        <coordinates>2.823908,41.983225,74
2.823908,41.983225,74
2.823956,41.983540,73
2.824334,41.983426,76
2.824801,41.983282,79
2.825573,41.984384,81
2.825715,41.984821,82
2.825326,41.985419,81
2.825221,41.985985,82
2.825206,41.986423,84
2.825156,41.986712,85
2.825195,41.986950,86
2.825208,41.987034,86
2.825203,41.987317,86
2.825764,41.987328,93
2.825814,41.987001,94
2.826257,41.986994,100
2.826261,41.987035,101</coordinates>
        <altitudeMode>relativeToGround</altitudeMode>
      </LineString>
      <Style>
        <LineStyle>
          <color>#ff0000ff</color>
          <width>5</width>
        </LineStyle>
      </Style>
    </Placemark>
  </Document>
</kml>